H1 CPF 01  gfz 2021 09 11 12  7542 tandemx   
H2 1003001  6202 36605    2021 09 11 12 59 42 2021 09 16 00 00 42   120 1 1  0 0 0
H9
10 0 59472  15822.000000  0    -881869.592    575707.614   6796479.393
10 0 59472  15942.000000  0     -43542.457    955443.913   6810756.630
10 0 59472  16062.000000  0     801916.176   1303775.151   6705359.008
10 0 59472  16182.000000  0    1639151.665   1614630.949   6482127.525
10 0 59472  16302.000000  0    2452848.607   1882859.479   6144961.358
10 0 59472  16422.000000  0    3228010.797   2104313.156   5699754.598
10 0 59472  16542.000000  0    3950240.402   2275913.375   5154299.165
10 0 59472  16662.000000  0    4606008.799   2395692.880   4518154.030
10 0 59472  16782.000000  0    5182915.763   2462815.970   3802484.438
10 0 59472  16902.000000  0    5669934.778   2477574.509   3019868.975
10 0 59472  17022.000000  0    6057630.730   2441358.679   2184076.709
10 0 59472  17142.000000  0    6338351.050   2356605.811   1309824.046
10 0 59472  17262.000000  0    6506384.089   2226725.847    412509.417
10 0 59472  17382.000000  0    6558078.524   2056006.222   -492066.323
10 0 59472  17502.000000  0    6491919.804   1849498.480  -1387987.767
10 0 59472  17622.000000  0    6308564.846   1612889.372  -2259511.387
10 0 59472  17742.000000  0    6010835.493   1352360.116  -3091349.805
10 0 59472  17862.000000  0    5603665.893   1074436.671  -3868945.013
10 0 59472  17982.000000  0    5094008.796    785835.979  -4578724.215
10 0 59472  18102.000000  0    4490703.480    493312.287  -5208333.269
10 0 59472  18222.000000  0    3804311.131    203506.796  -5746844.164
10 0 59472  18342.000000  0    3046921.037    -77195.642  -6184935.352
10 0 59472  18462.000000  0    2231930.719   -342800.404  -6515042.552
10 0 59472  18582.000000  0    1373806.550   -587825.334  -6731477.090
10 0 59472  18702.000000  0     487828.943   -807409.148  -6830514.982
10 0 59472  18822.000000  0    -410176.696   -997403.796  -6810453.703
10 0 59472  18942.000000  0   -1304115.667  -1154449.915  -6671637.374
10 0 59472  19062.000000  0   -2177905.704  -1276034.838  -6416452.251
10 0 59472  19182.000000  0   -3015760.046  -1360531.961  -6049289.121
10 0 59472  19302.000000  0   -3802466.179  -1407221.271  -5576475.974
10 0 59472  19422.000000  0   -4523661.288  -1416291.191  -5006181.232
10 0 59472  19542.000000  0   -5166097.460  -1388820.686  -4348283.745
10 0 59472  19662.000000  0   -5717890.907  -1326742.164  -3614212.770
10 0 59472  19782.000000  0   -6168751.813  -1232785.682  -2816758.590
10 0 59472  19902.000000  0   -6510188.056  -1110405.015  -1969854.940
10 0 59472  20022.000000  0   -6735677.393   -963687.059  -1088337.482
10 0 59472  20142.000000  0   -6840804.220   -797246.611   -187681.715
10 0 59472  20262.000000  0   -6823354.953   -616107.543    716274.906
10 0 59472  20382.000000  0   -6683369.658   -425575.185   1607618.803
10 0 59472  20502.000000  0   -6423148.706   -231103.014   2470649.613
10 0 59472  20622.000000  0   -6047213.525    -38156.210   3290165.714
10 0 59472  20742.000000  0   -5562222.108    147924.185   4051739.774
10 0 59472  20862.000000  0   -4976841.918    322052.402   4741977.473
10 0 59472  20982.000000  0   -4301584.480    479521.289   5348754.092
10 0 59472  21102.000000  0   -3548607.073    616115.692   5861425.345
10 0 59472  21222.000000  0   -2731484.970    728212.372   6271010.804
10 0 59472  21342.000000  0   -1864959.392    812864.443   6570346.047
10 0 59472  21462.000000  0    -964665.903    867870.061   6754202.370
10 0 59472  21582.000000  0     -46849.708    891822.935   6819371.348
10 0 59472  21702.000000  0     871927.081    884143.949   6764716.705
10 0 59472  21822.000000  0    1775083.065    845094.038   6591192.891
10 0 59472  21942.000000  0    2646315.704    775767.816   6301829.628
10 0 59472  22062.000000  0    3469895.704    678067.807   5901683.145
10 0 59472  22182.000000  0    4230953.667    554659.846   5397752.808
10 0 59472  22302.000000  0    4915752.354    408910.322   4798864.569
10 0 59472  22422.000000  0    5511941.418    244805.433   4115522.977
10 0 59472  22542.000000  0    6008790.072     66855.853   3359731.231
10 0 59472  22662.000000  0    6397390.892   -120011.562   2544781.283
10 0 59472  22782.000000  0    6670828.660   -310574.108   1685017.931
10 0 59472  22902.000000  0    6824311.763   -499442.803    795582.902
10 0 59472  23022.000000  0    6855262.790   -681195.645   -107858.512
10 0 59472  23142.000000  0    6763364.475   -850513.384  -1009402.756
10 0 59472  23262.000000  0    6550558.577  -1002313.707  -1893197.014
10 0 59472  23382.000000  0    6220999.750  -1131879.952  -2743725.998
10 0 59472  23502.000000  0    5780965.261  -1234981.439  -3546089.627
10 0 59472  23622.000000  0    5238724.111  -1307982.202  -4286266.252
10 0 59472  23742.000000  0    4604369.366  -1347935.230  -4951355.933
10 0 59472  23862.000000  0    3889619.191  -1352661.022  -5529800.115
10 0 59472  23982.000000  0    3107590.378  -1320809.292  -6011574.399
10 0 59472  24102.000000  0    2272550.850  -1251901.685  -6388351.137
10 0 59472  24222.000000  0    1399656.864  -1146354.563  -6653632.356
10 0 59472  24342.000000  0     504678.503  -1005483.289  -6802851.056
10 0 59472  24462.000000  0    -396281.314   -831487.623  -6833441.450
10 0 59472  24582.000000  0   -1287070.138   -627417.825  -6744877.750
10 0 59472  24702.000000  0   -2151768.961   -397122.353  -6538682.600
10 0 59472  24822.000000  0   -2974970.309   -145177.451  -6218402.546
10 0 59472  24942.000000  0   -3742046.429    123199.681  -5789553.661
10 0 59472  25062.000000  0   -4439407.886    402253.893  -5259537.457
10 0 59472  25182.000000  0   -5054746.148    685808.926  -4637523.929
10 0 59472  25302.000000  0   -5577257.106    967396.846  -3934305.634
10 0 59472  25422.000000  0   -5997840.962   1240398.781  -3162120.222
10 0 59472  25542.000000  0   -6309272.270   1498192.701  -2334444.425
10 0 59472  25662.000000  0   -6506336.720   1734304.904  -1465762.490
10 0 59472  25782.000000  0   -6585931.050   1942562.600   -571312.345
10 0 59472  25902.000000  0   -6547121.497   2117242.720    333186.933
10 0 59472  26022.000000  0   -6391158.142   2253213.024   1231818.631
10 0 59472  26142.000000  0   -6121445.745   2346063.094   2108756.752
10 0 59472  26262.000000  0   -5743470.693   2392220.936   2948554.035
10 0 59472  26382.000000  0   -5264686.235   2389051.493   3736422.248
10 0 59472  26502.000000  0   -4694358.471   2334934.504   4458498.768
10 0 59472  26622.000000  0   -4043378.306   2229320.767   5102092.544
10 0 59472  26742.000000  0   -3324045.435   2072765.620   5655906.416
10 0 59472  26862.000000  0   -2549828.411   1866939.551   6110233.466
10 0 59472  26982.000000  0   -1735104.699   1614614.661   6457122.831
10 0 59472  27102.000000  0    -894888.189   1319627.521   6690512.459
10 0 59472  27222.000000  0     -44550.327    986819.975   6806327.651
10 0 59472  27342.000000  0     800460.525    621958.932   6802547.391
10 0 59472  27462.000000  0    1624898.671    231636.409   6679237.251
10 0 59472  27582.000000  0    2413994.835   -176848.776   6438548.608
10 0 59472  27702.000000  0    3153720.505   -595626.721   6084684.741
10 0 59472  27822.000000  0    3831039.533  -1016406.612   5623832.215
10 0 59472  27942.000000  0    4434141.789  -1430639.639   5064058.205
10 0 59472  28062.000000  0    4952654.204  -1829691.742   4415175.180
10 0 59472  28182.000000  0    5377827.260  -2205022.172   3688574.532
10 0 59472  28302.000000  0    5702692.036  -2548365.380   2897028.899
10 0 59472  28422.000000  0    5922181.780  -2851911.560   2054466.658
10 0 59472  28542.000000  0    6033216.753  -3108480.991   1175724.503
10 0 59472  28662.000000  0    6034750.933  -3311689.085    276280.345
10 0 59472  28782.000000  0    5927776.119  -3456096.131   -628027.412
10 0 59472  28902.000000  0    5715285.986  -3537339.124  -1521288.168
10 0 59472  29022.000000  0    5402197.592  -3552240.485  -2387808.164
10 0 59472  29142.000000  0    4995236.099  -3498892.860  -3212392.168
10 0 59472  29262.000000  0    4502784.872  -3376717.687  -3980613.991
10 0 59472  29382.000000  0    3934705.090  -3186496.586  -4679069.024
10 0 59472  29502.000000  0    3302129.719  -2930374.389  -5295604.794
10 0 59472  29622.000000  0    2617238.155  -2611834.658  -5819524.133
10 0 59472  29742.000000  0    1893018.324  -2235650.786  -6241760.176
10 0 59472  29862.000000  0    1143019.177  -1807812.340  -6555023.942
10 0 59472  29982.000000  0     381097.124  -1335426.502  -6753919.600
10 0 59472  30102.000000  0    -378836.635   -826599.544  -6835026.978
10 0 59472  30222.000000  0   -1123064.388   -290299.597  -6796953.115
10 0 59472  30342.000000  0   -1838303.694    263797.796  -6640353.450
10 0 59472  30462.000000  0   -2511938.909    825479.809  -6367920.918
10 0 59472  30582.000000  0   -3132238.624   1384179.404  -5984344.732
10 0 59472  30702.000000  0   -3688557.536   1929169.202  -5496239.071
10 0 59472  30822.000000  0   -4171521.327   2449763.951  -4912041.079
10 0 59472  30942.000000  0   -4573189.679   2935528.779  -4241875.868
10 0 59472  31062.000000  0   -4887193.024   3376487.810  -3497390.811
10 0 59472  31182.000000  0   -5108841.653   3763330.068  -2691562.532
10 0 59472  31302.000000  0   -5235203.740   4087608.342  -1838475.724
10 0 59472  31422.000000  0   -5265149.861   4341925.013   -953078.828
10 0 59472  31542.000000  0   -5199362.629   4520100.888    -50919.561
10 0 59472  31662.000000  0   -5040309.590   4617322.482    852134.181
10 0 59472  31782.000000  0   -4792179.138   4630261.930   1740182.723
10 0 59472  31902.000000  0   -4460780.971   4557166.676   2597583.987
10 0 59472  32022.000000  0   -4053413.558   4397917.704   3409237.349
10 0 59472  32142.000000  0   -3578702.862   4154054.221   4160856.077
10 0 59472  32262.000000  0   -3046417.247   3828764.337   4839222.684
99
